{
  "type": "FeatureCollection",
  "features": [
    {
      "type": "Feature",
      "properties": {
        "norad_id": 66623,
        "name": "STARLINK-35920",
        "group": "last-30-days",
        "lat": 51.96787624520808,
        "lon": -137.0973406708269,
        "alt_km": 439.4485227305495,
        "timestamp": "2025-12-20T16:47:35.022218+00:00",
        "meta_object_name": "STARLINK-35920",
        "meta_object_id": "2025-271G",
        "meta_epoch": "2025-12-20T00:00:02.000160",
        "meta_mean_motion": 15.39609547,
        "meta_eccentricity": 0.0001114,
        "meta_inclination": 53.1601,
        "meta_ra_of_asc_node": 152.7686,
        "meta_arg_of_pericenter": 79.6665,
        "meta_mean_anomaly": 79.9296,
        "meta_ephemeris_type": 0,
        "meta_classification_type": "U",
        "meta_norad_cat_id": 66623,
        "meta_element_set_no": 999,
        "meta_rev_at_epoch": 541,
        "meta_bstar": 0.00041204,
        "meta_mean_motion_dot": 0.00016111,
        "meta_mean_motion_ddot": 0,
        "tle_line1": "1 66623U 25271G   25354.00002315  .00016111  00000+0  41204-3 0  9993",
        "tle_line2": "2 66623  53.1601 152.7686 0001114  79.6665  79.9296 15.39609547  5413"
      },
      "geometry": {
        "type": "Point",
        "coordinates": [
          -137.0973406708269,
          51.96787624520808
        ]
      }
    },
    {
      "type": "Feature",
      "properties": {
        "norad_id": 66624,
        "name": "STARLINK-35927",
        "group": "last-30-days",
        "lat": -37.50626964856456,
        "lon": 4.304211691196727,
        "alt_km": 433.32822487136946,
        "timestamp": "2025-12-20T16:47:35.022229+00:00",
        "meta_object_name": "STARLINK-35927",
        "meta_object_id": "2025-271H",
        "meta_epoch": "2025-12-19T22:44:25.582848",
        "meta_mean_motion": 15.46532201,
        "meta_eccentricity": 8.49e-05,
        "meta_inclination": 53.159,
        "meta_ra_of_asc_node": 152.7553,
        "meta_arg_of_pericenter": 106.2501,
        "meta_mean_anomaly": 253.86,
        "meta_ephemeris_type": 0,
        "meta_classification_type": "U",
        "meta_norad_cat_id": 66624,
        "meta_element_set_no": 999,
        "meta_rev_at_epoch": 532,
        "meta_bstar": -0.0084107,
        "meta_mean_motion_dot": -0.00403682,
        "meta_mean_motion_ddot": 0,
        "tle_line1": "1 66624U 25271H   25353.94751832 -.00403682  00000+0 -84107-2 0  9994",
        "tle_line2": "2 66624  53.1590 152.7553 0000849 106.2501 253.8600 15.46532201  5326"
      },
      "geometry": {
        "type": "Point",
        "coordinates": [
          4.304211691196727,
          -37.50626964856456
        ]
      }
    },
    {
      "type": "Feature",
      "properties": {
        "norad_id": 66625,
        "name": "STARLINK-35929",
        "group": "last-30-days",
        "lat": -2.421478810833136,
        "lon": -28.91684974980488,
        "alt_km": 448.3862621795406,
        "timestamp": "2025-12-20T16:47:35.022241+00:00",
        "meta_object_name": "STARLINK-35929",
        "meta_object_id": "2025-271J",
        "meta_epoch": "2025-12-20T12:00:02.000160",
        "meta_mean_motion": 15.39615579,
        "meta_eccentricity": 8.69e-05,
        "meta_inclination": 53.1594,
        "meta_ra_of_asc_node": 150.2075,
        "meta_arg_of_pericenter": 97.6068,
        "meta_mean_anomaly": 57.8904,
        "meta_ephemeris_type": 0,
        "meta_classification_type": "U",
        "meta_norad_cat_id": 66625,
        "meta_element_set_no": 999,
        "meta_rev_at_epoch": 549,
        "meta_bstar": 0.00037305,
        "meta_mean_motion_dot": 0.00014549,
        "meta_mean_motion_ddot": 0,
        "tle_line1": "1 66625U 25271J   25354.50002315  .00014549  00000+0  37305-3 0  9990",
        "tle_line2": "2 66625  53.1594 150.2075 0000869  97.6068  57.8904 15.39615579  5495"
      },
      "geometry": {
        "type": "Point",
        "coordinates": [
          -28.91684974980488,
          -2.421478810833136
        ]
      }
    },
    {
      "type": "Feature",
      "properties": {
        "norad_id": 66626,
        "name": "STARLINK-35902",
        "group": "last-30-days",
        "lat": 50.38131268413758,
        "lon": -95.49067973242673,
        "alt_km": 439.5119137433803,
        "timestamp": "2025-12-20T16:47:35.022252+00:00",
        "meta_object_name": "STARLINK-35902",
        "meta_object_id": "2025-271K",
        "meta_epoch": "2025-12-20T12:00:02.000160",
        "meta_mean_motion": 15.39623535,
        "meta_eccentricity": 0.0001427,
        "meta_inclination": 53.1601,
        "meta_ra_of_asc_node": 150.361,
        "meta_arg_of_pericenter": 87.7503,
        "meta_mean_anomaly": 350.4838,
        "meta_ephemeris_type": 0,
        "meta_classification_type": "U",
        "meta_norad_cat_id": 66626,
        "meta_element_set_no": 999,
        "meta_rev_at_epoch": 549,
        "meta_bstar": 0.00023885,
        "meta_mean_motion_dot": 9.167e-05,
        "meta_mean_motion_ddot": 0,
        "tle_line1": "1 66626U 25271K   25354.50002315  .00009167  00000+0  23885-3 0  9999",
        "tle_line2": "2 66626  53.1601 150.3610 0001427  87.7503 350.4838 15.39623535  5495"
      },
      "geometry": {
        "type": "Point",
        "coordinates": [
          -95.49067973242673,
          50.38131268413758
        ]
      }
    },
    {
      "type": "Feature",
      "properties": {
        "norad_id": 66627,
        "name": "STARLINK-35904",
        "group": "last-30-days",
        "lat": 18.020728970036608,
        "lon": -44.799865124466464,
        "alt_km": 445.26249646845645,
        "timestamp": "2025-12-20T16:47:35.022264+00:00",
        "meta_object_name": "STARLINK-35904",
        "meta_object_id": "2025-271L",
        "meta_epoch": "2025-12-20T12:00:02.000160",
        "meta_mean_motion": 15.39621953,
        "meta_eccentricity": 9.46e-05,
        "meta_inclination": 53.1593,
        "meta_ra_of_asc_node": 150.2584,
        "meta_arg_of_pericenter": 87.4906,
        "meta_mean_anomaly": 42.2401,
        "meta_ephemeris_type": 0,
        "meta_classification_type": "U",
        "meta_norad_cat_id": 66627,
        "meta_element_set_no": 999,
        "meta_rev_at_epoch": 533,
        "meta_bstar": 0.0003081,
        "meta_mean_motion_dot": 0.00011944,
        "meta_mean_motion_ddot": 0,
        "tle_line1": "1 66627U 25271L   25354.50002315  .00011944  00000+0  30810-3 0  9992",
        "tle_line2": "2 66627  53.1593 150.2584 0000946  87.4906  42.2401 15.39621953  5331"
      },
      "geometry": {
        "type": "Point",
        "coordinates": [
          -44.799865124466464,
          18.020728970036608
        ]
      }
    },
    {
      "type": "Feature",
      "properties": {
        "norad_id": 66628,
        "name": "STARLINK-35862",
        "group": "last-30-days",
        "lat": -43.39081974139188,
        "lon": 14.287889105607675,
        "alt_km": 434.63962911732415,
        "timestamp": "2025-12-20T16:47:35.022274+00:00",
        "meta_object_name": "STARLINK-35862",
        "meta_object_id": "2025-271M",
        "meta_epoch": "2025-12-19T22:41:57.757632",
        "meta_mean_motion": 15.46540943,
        "meta_eccentricity": 0.0002224,
        "meta_inclination": 53.1592,
        "meta_ra_of_asc_node": 152.7424,
        "meta_arg_of_pericenter": 62.1747,
        "meta_mean_anomaly": 297.9486,
        "meta_ephemeris_type": 0,
        "meta_classification_type": "U",
        "meta_norad_cat_id": 66628,
        "meta_element_set_no": 999,
        "meta_rev_at_epoch": 532,
        "meta_bstar": -0.0077533,
        "meta_mean_motion_dot": -0.00373781,
        "meta_mean_motion_ddot": 0,
        "tle_line1": "1 66628U 25271M   25353.94580738 -.00373781  00000+0 -77533-2 0  9994",
        "tle_line2": "2 66628  53.1592 152.7424 0002224  62.1747 297.9486 15.46540943  5323"
      },
      "geometry": {
        "type": "Point",
        "coordinates": [
          14.287889105607675,
          -43.39081974139188
        ]
      }
    },
    {
      "type": "Feature",
      "properties": {
        "norad_id": 66629,
        "name": "STARLINK-35956",
        "group": "last-30-days",
        "lat": -50.71261299700793,
        "lon": 35.52797249043288,
        "alt_km": 423.2712827753576,
        "timestamp": "2025-12-20T16:47:35.022287+00:00",
        "meta_object_name": "STARLINK-35956",
        "meta_object_id": "2025-271N",
        "meta_epoch": "2025-12-18T16:00:00.999936",
        "meta_mean_motion": 15.49463337,
        "meta_eccentricity": 5.424e-05,
        "meta_inclination": 53.1591,
        "meta_ra_of_asc_node": 158.846,
        "meta_arg_of_pericenter": 63.7637,
        "meta_mean_anomaly": 4.4961,
        "meta_ephemeris_type": 0,
        "meta_classification_type": "U",
        "meta_norad_cat_id": 66629,
        "meta_element_set_no": 999,
        "meta_rev_at_epoch": 519,
        "meta_bstar": 0.0002238515,
        "meta_mean_motion_dot": 0.00012088,
        "meta_mean_motion_ddot": 0,
        "tle_line1": "1 66629U 25271N   25352.66667824  .00012088  00000+0  22385-3 0  9999",
        "tle_line2": "2 66629  53.1591 158.8460 0000542  63.7637   4.4961 15.49463337  5194"
      },
      "geometry": {
        "type": "Point",
        "coordinates": [
          35.52797249043288,
          -50.71261299700793
        ]
      }
    }
  ]
}